[
  {
    "OBJECT_NAME": "STARLINK-3401",
    "OBJECT_ID": "22010K",
    "EPOCH": "2025-11-10T18:54:43.112736",
    "MEAN_MOTION": 15.08845895,
    "ECCENTRICITY": 0.0001316,
    "INCLINATION": 53.2153,
    "RA_OF_ASC_NODE": 92.8901,
    "ARG_OF_PERICENTER": 87.2741,
    "MEAN_ANOMALY": 272.8402,
    "EPHEMERIS_TYPE": 0,
    "CLASSIFICATION_TYPE": "U",
    "NORAD_CAT_ID": 51465,
    "ELEMENT_SET_NO": 999,
    "REV_AT_EPOCH": 20937,
    "BSTAR": 0.00013644000000000002,
    "MEAN_MOTION_DOT": 1.885e-05,
    "MEAN_MOTION_DDOT": 0.0,
    "TLE_LINE1": "1 51465U 22010K   25314.78799899  .00001885  00000+0  13644-3 0  9999",
    "TLE_LINE2": "2 51465  53.2153  92.8901 0001316  87.2741 272.8402 15.08845895209370",
    "COMMENT": "Grouped by shell and plane from TLE"
  },
  {
    "OBJECT_NAME": "STARLINK-3178",
    "OBJECT_ID": "22010M",
    "EPOCH": "2025-11-11T02:25:08.815008",
    "MEAN_MOTION": 15.08835344,
    "ECCENTRICITY": 0.0001707,
    "INCLINATION": 53.2191,
    "RA_OF_ASC_NODE": 91.4863,
    "ARG_OF_PERICENTER": 83.4953,
    "MEAN_ANOMALY": 276.6234,
    "EPHEMERIS_TYPE": 0,
    "CLASSIFICATION_TYPE": "U",
    "NORAD_CAT_ID": 51467,
    "ELEMENT_SET_NO": 999,
    "REV_AT_EPOCH": 20861,
    "BSTAR": 0.00017147,
    "MEAN_MOTION_DOT": 2.442e-05,
    "MEAN_MOTION_DDOT": 0.0,
    "TLE_LINE1": "1 51467U 22010M   25315.10079647  .00002442  00000+0  17147-3 0  9992",
    "TLE_LINE2": "2 51467  53.2191  91.4863 0001707  83.4953 276.6234 15.08835344208612",
    "COMMENT": "Grouped by shell and plane from TLE"
  },
  {
    "OBJECT_NAME": "STARLINK-3174",
    "OBJECT_ID": "22010N",
    "EPOCH": "2025-11-11T02:35:44.303424",
    "MEAN_MOTION": 15.0884241,
    "ECCENTRICITY": 0.0001359,
    "INCLINATION": 53.2161,
    "RA_OF_ASC_NODE": 91.4154,
    "ARG_OF_PERICENTER": 92.0834,
    "MEAN_ANOMALY": 268.0314,
    "EPHEMERIS_TYPE": 0,
    "CLASSIFICATION_TYPE": "U",
    "NORAD_CAT_ID": 51468,
    "ELEMENT_SET_NO": 999,
    "REV_AT_EPOCH": 20861,
    "BSTAR": 4.8316e-05,
    "MEAN_MOTION_DOT": 4.81e-06,
    "MEAN_MOTION_DDOT": 0.0,
    "TLE_LINE1": "1 51468U 22010N   25315.10815166  .00000481  00000+0  48316-4 0  9991",
    "TLE_LINE2": "2 51468  53.2161  91.4154 0001359  92.0834 268.0314 15.08842410208616",
    "COMMENT": "Grouped by shell and plane from TLE"
  },
  {
    "OBJECT_NAME": "STARLINK-3182",
    "OBJECT_ID": "22010P",
    "EPOCH": "2025-11-10T15:54:31.796064",
    "MEAN_MOTION": 15.08847163,
    "ECCENTRICITY": 6.64e-05,
    "INCLINATION": 53.2194,
    "RA_OF_ASC_NODE": 93.4498,
    "ARG_OF_PERICENTER": 86.8501,
    "MEAN_ANOMALY": 273.2567,
    "EPHEMERIS_TYPE": 0,
    "CLASSIFICATION_TYPE": "U",
    "NORAD_CAT_ID": 51469,
    "ELEMENT_SET_NO": 999,
    "REV_AT_EPOCH": 20885,
    "BSTAR": 5.7294000000000004e-05,
    "MEAN_MOTION_DOT": 6.25e-06,
    "MEAN_MOTION_DDOT": 0.0,
    "TLE_LINE1": "1 51469U 22010P   25314.66286801  .00000625  00000+0  57294-4 0  9995",
    "TLE_LINE2": "2 51469  53.2194  93.4498 0000664  86.8501 273.2567 15.08847163208850",
    "COMMENT": "Grouped by shell and plane from TLE"
  },
  {
    "OBJECT_NAME": "STARLINK-3415",
    "OBJECT_ID": "22010S",
    "EPOCH": "2025-11-11T02:26:31.276032",
    "MEAN_MOTION": 15.08833828,
    "ECCENTRICITY": 0.0001229,
    "INCLINATION": 53.2168,
    "RA_OF_ASC_NODE": 91.4166,
    "ARG_OF_PERICENTER": 85.2832,
    "MEAN_ANOMALY": 274.8301,
    "EPHEMERIS_TYPE": 0,
    "CLASSIFICATION_TYPE": "U",
    "NORAD_CAT_ID": 51472,
    "ELEMENT_SET_NO": 999,
    "REV_AT_EPOCH": 20892,
    "BSTAR": 0.0,
    "MEAN_MOTION_DOT": -9.98e-06,
    "MEAN_MOTION_DDOT": 0.0,
    "TLE_LINE1": "1 51472U 22010S   25315.10175088 -.00000998  00000+0 -44614-4 0  9990",
    "TLE_LINE2": "2 51472  53.2168  91.4166 0001229  85.2832 274.8301 15.08833828208927",
    "COMMENT": "Grouped by shell and plane from TLE"
  },
  {
    "OBJECT_NAME": "STARLINK-4019",
    "OBJECT_ID": "22052A",
    "EPOCH": "2025-11-10T11:05:04.825824",
    "MEAN_MOTION": 15.08841422,
    "ECCENTRICITY": 0.0001362,
    "INCLINATION": 53.2165,
    "RA_OF_ASC_NODE": 99.355,
    "ARG_OF_PERICENTER": 89.7466,
    "MEAN_ANOMALY": 270.3682,
    "EPHEMERIS_TYPE": 0,
    "CLASSIFICATION_TYPE": "U",
    "NORAD_CAT_ID": 52598,
    "ELEMENT_SET_NO": 999,
    "REV_AT_EPOCH": 19358,
    "BSTAR": 0.00011477,
    "MEAN_MOTION_DOT": 1.539e-05,
    "MEAN_MOTION_DDOT": 0.0,
    "TLE_LINE1": "1 52598U 22052A   25314.46186141  .00001539  00000+0  11477-3 0  9996",
    "TLE_LINE2": "2 52598  53.2165  99.3550 0001362  89.7466 270.3682 15.08841422193585",
    "COMMENT": "Grouped by shell and plane from TLE"
  },
  {
    "OBJECT_NAME": "STARLINK-4024",
    "OBJECT_ID": "22052B",
    "EPOCH": "2025-11-11T02:41:03.063264",
    "MEAN_MOTION": 15.08870892,
    "ECCENTRICITY": 0.0001275,
    "INCLINATION": 53.2165,
    "RA_OF_ASC_NODE": 91.5423,
    "ARG_OF_PERICENTER": 89.5068,
    "MEAN_ANOMALY": 270.607,
    "EPHEMERIS_TYPE": 0,
    "CLASSIFICATION_TYPE": "U",
    "NORAD_CAT_ID": 52599,
    "ELEMENT_SET_NO": 999,
    "REV_AT_EPOCH": 19375,
    "BSTAR": 0.0,
    "MEAN_MOTION_DOT": -3.609e-05,
    "MEAN_MOTION_DDOT": 0.0,
    "TLE_LINE1": "1 52599U 22052B   25315.11184101 -.00003609  00000+0 -20857-3 0  9998",
    "TLE_LINE2": "2 52599  53.2165  91.5423 0001275  89.5068 270.6070 15.08870892193754",
    "COMMENT": "Grouped by shell and plane from TLE"
  },
  {
    "OBJECT_NAME": "STARLINK-4026",
    "OBJECT_ID": "22052C",
    "EPOCH": "2025-11-11T02:09:15.453216",
    "MEAN_MOTION": 15.08844731,
    "ECCENTRICITY": 0.0001189,
    "INCLINATION": 53.2184,
    "RA_OF_ASC_NODE": 91.5337,
    "ARG_OF_PERICENTER": 86.8258,
    "MEAN_ANOMALY": 273.287,
    "EPHEMERIS_TYPE": 0,
    "CLASSIFICATION_TYPE": "U",
    "NORAD_CAT_ID": 52600,
    "ELEMENT_SET_NO": 999,
    "REV_AT_EPOCH": 19375,
    "BSTAR": 9.5329e-06,
    "MEAN_MOTION_DOT": -1.36e-06,
    "MEAN_MOTION_DDOT": 0.0,
    "TLE_LINE1": "1 52600U 22052C   25315.08976219 -.00000136  00000+0  95329-5 0  9995",
    "TLE_LINE2": "2 52600  53.2184  91.5337 0001189  86.8258 273.2870 15.08844731193757",
    "COMMENT": "Grouped by shell and plane from TLE"
  },
  {
    "OBJECT_NAME": "STARLINK-4027",
    "OBJECT_ID": "22052D",
    "EPOCH": "2025-11-11T02:19:50.736864",
    "MEAN_MOTION": 15.08844149,
    "ECCENTRICITY": 0.0001351,
    "INCLINATION": 53.2192,
    "RA_OF_ASC_NODE": 91.5035,
    "ARG_OF_PERICENTER": 86.2476,
    "MEAN_ANOMALY": 273.8671,
    "EPHEMERIS_TYPE": 0,
    "CLASSIFICATION_TYPE": "U",
    "NORAD_CAT_ID": 52601,
    "ELEMENT_SET_NO": 999,
    "REV_AT_EPOCH": 19375,
    "BSTAR": 9.179300000000001e-05,
    "MEAN_MOTION_DOT": 1.173e-05,
    "MEAN_MOTION_DDOT": 0.0,
    "TLE_LINE1": "1 52601U 22052D   25315.09711501  .00001173  00000+0  91793-4 0  9999",
    "TLE_LINE2": "2 52601  53.2192  91.5035 0001351  86.2476 273.8671 15.08844149193757",
    "COMMENT": "Grouped by shell and plane from TLE"
  },
  {
    "OBJECT_NAME": "STARLINK-4012",
    "OBJECT_ID": "22052E",
    "EPOCH": "2025-11-11T02:14:35.933280",
    "MEAN_MOTION": 15.08810059,
    "ECCENTRICITY": 0.0002296,
    "INCLINATION": 53.218,
    "RA_OF_ASC_NODE": 91.5196,
    "ARG_OF_PERICENTER": 94.4315,
    "MEAN_ANOMALY": 265.6939,
    "EPHEMERIS_TYPE": 0,
    "CLASSIFICATION_TYPE": "U",
    "NORAD_CAT_ID": 52602,
    "ELEMENT_SET_NO": 999,
    "REV_AT_EPOCH": 19375,
    "BSTAR": 0.0,
    "MEAN_MOTION_DOT": -2.75e-05,
    "MEAN_MOTION_DDOT": 0.0,
    "TLE_LINE1": "1 52602U 22052E   25315.09347145 -.00002750  00000+0 -15483-3 0  9994",
    "TLE_LINE2": "2 52602  53.2180  91.5196 0002296  94.4315 265.6939 15.08810059193754",
    "COMMENT": "Grouped by shell and plane from TLE"
  },
  {
    "OBJECT_NAME": "STARLINK-4016",
    "OBJECT_ID": "22052F",
    "EPOCH": "2025-11-11T01:54:44.345952",
    "MEAN_MOTION": 15.08847503,
    "ECCENTRICITY": 0.0001108,
    "INCLINATION": 53.2161,
    "RA_OF_ASC_NODE": 91.5892,
    "ARG_OF_PERICENTER": 96.5449,
    "MEAN_ANOMALY": 263.567,
    "EPHEMERIS_TYPE": 0,
    "CLASSIFICATION_TYPE": "U",
    "NORAD_CAT_ID": 52603,
    "ELEMENT_SET_NO": 999,
    "REV_AT_EPOCH": 19375,
    "BSTAR": 0.00019635,
    "MEAN_MOTION_DOT": 2.839e-05,
    "MEAN_MOTION_DDOT": 0.0,
    "TLE_LINE1": "1 52603U 22052F   25315.07967993  .00002839  00000+0  19635-3 0  9991",
    "TLE_LINE2": "2 52603  53.2161  91.5892 0001108  96.5449 263.5670 15.08847503193752",
    "COMMENT": "Grouped by shell and plane from TLE"
  },
  {
    "OBJECT_NAME": "STARLINK-4013",
    "OBJECT_ID": "22052G",
    "EPOCH": "2025-11-11T02:03:56.809152",
    "MEAN_MOTION": 15.0884179,
    "ECCENTRICITY": 0.000102,
    "INCLINATION": 53.2178,
    "RA_OF_ASC_NODE": 91.5494,
    "ARG_OF_PERICENTER": 84.7006,
    "MEAN_ANOMALY": 275.4102,
    "EPHEMERIS_TYPE": 0,
    "CLASSIFICATION_TYPE": "U",
    "NORAD_CAT_ID": 52604,
    "ELEMENT_SET_NO": 999,
    "REV_AT_EPOCH": 19295,
    "BSTAR": 6.309700000000001e-05,
    "MEAN_MOTION_DOT": 7.17e-06,
    "MEAN_MOTION_DDOT": 0.0,
    "TLE_LINE1": "1 52604U 22052G   25315.08607418  .00000717  00000+0  63097-4 0  9991",
    "TLE_LINE2": "2 52604  53.2178  91.5494 0001020  84.7006 275.4102 15.08841790192955",
    "COMMENT": "Grouped by shell and plane from TLE"
  },
  {
    "OBJECT_NAME": "STARLINK-4000",
    "OBJECT_ID": "22052H",
    "EPOCH": "2025-11-11T02:23:12.526656",
    "MEAN_MOTION": 15.08821374,
    "ECCENTRICITY": 0.0001202,
    "INCLINATION": 53.2181,
    "RA_OF_ASC_NODE": 96.2697,
    "ARG_OF_PERICENTER": 88.7655,
    "MEAN_ANOMALY": 271.3475,
    "EPHEMERIS_TYPE": 0,
    "CLASSIFICATION_TYPE": "U",
    "NORAD_CAT_ID": 52605,
    "ELEMENT_SET_NO": 999,
    "REV_AT_EPOCH": 19288,
    "BSTAR": 0.00018686,
    "MEAN_MOTION_DOT": 2.686e-05,
    "MEAN_MOTION_DDOT": 0.0,
    "TLE_LINE1": "1 52605U 22052H   25315.09945054  .00002686  00000+0  18686-3 0  9994",
    "TLE_LINE2": "2 52605  53.2181  96.2697 0001202  88.7655 271.3475 15.08821374192889",
    "COMMENT": "Grouped by shell and plane from TLE"
  }
]